OBJECT_NAME,OBJECT_ID,EPOCH,MEAN_MOTION,ECCENTRICITY,INCLINATION,RA_OF_ASC_NODE,ARG_OF_PERICENTER,MEAN_ANOMALY,EPHEMERIS_TYPE,CLASSIFICATION_TYPE,NORAD_CAT_ID,ELEMENT_SET_NO,REV_AT_EPOCH,BSTAR,MEAN_MOTION_DOT,MEAN_MOTION_DDOT
TANSAT,2016-081A,2026-06-06T15:00:38.567232,14.59941897,.00203934,98.5365,157.5714,345.8472,14.2153,0,U,41898,999,50308,.94339207E-4,.403E-5,0
JILIN-1 03,2017-002B,2026-06-06T13:46:57.577728,15.41314874,.0005374,97.1952,164.8105,188.6707,171.4449,0,U,41914,999,52022,.39315459E-3,.1632E-3,0
CARTOSAT-2D,2017-008A,2026-06-05T15:10:45.234336,15.19236200,.00037278,97.4122,216.1531,285.1069,74.9753,0,U,41948,999,51582,-.99469042E-4,-.216E-4,0
CARTOSAT-2E,2017-036C,2026-06-06T13:43:53.593248,15.19240893,.00032957,97.4276,217.5494,3.8584,356.2675,0,U,42767,999,49653,.28293835E-3,.5895E-4,0
IRIDIUM 113,2017-039A,2026-06-06T11:54:15.200928,14.34217281,.00023066,86.3963,326.6493,90.9628,269.1832,0,U,42803,999,46965,.18277618E-4,.71E-6,0
NORSAT 2,2017-042D,2026-06-06T10:35:44.208096,15.21717923,.00108268,97.4041,331.0550,90.1782,270.0695,0,U,42828,999,48610,.71962183E-3,.16274E-3,0
TECHNOSAT,2017-042E,2026-06-06T09:52:18.006528,15.04891353,.00189427,97.4272,315.4814,127.9977,232.2964,0,U,42829,999,48508,.25504047E-3,.3563E-4,0
FLYING LAPTOP,2017-042G,2026-06-06T14:04:51.521088,15.01075819,.00190178,97.4649,313.5308,156.3725,203.8377,0,U,42831,999,48486,.35115415E-3,.4451E-4,0
WNISAT 1R,2017-042L,2026-06-06T05:32:38.806944,15.01714949,.00098586,97.4833,313.7459,186.2133,173.8971,0,U,42835,999,48486,.23815058E-3,.3042E-4,0
LEMUR-2-GREENBERG,2017-042N,2026-06-06T10:25:54.871104,15.30993300,.00095537,97.3820,338.1122,50.7747,309.4341,0,U,42837,999,48674,.76603283E-3,.22936E-3,0
LEMUR-2-FURIAUS,2017-042R,2026-06-06T11:40:09.040800,15.29895628,.00085806,97.3773,336.1433,101.7128,258.5076,0,U,42840,999,48657,.79208213E-3,.22921E-3,0
CORVUS BC2,2017-042X,2026-06-06T04:00:47.452032,15.06228237,.00141087,97.4067,318.9474,143.8240,216.3945,0,U,42846,999,48540,.29031568E-3,.4207E-4,0
CORVUS BC1,2017-042Y,2026-06-06T05:30:28.381824,15.06396296,.00133651,97.4093,319.8140,122.2429,238.0096,0,U,42847,999,48544,.25816413E-3,.3751E-4,0
VRSS-2,2017-060A,2026-06-06T13:56:36.392928,14.81175249,.00180783,97.6514,195.7854,130.6945,229.5843,0,U,42954,999,46688,.84127314E-4,.606E-5,0
MOHAMMED VI-A,2017-070A,2026-06-06T13:48:22.536576,14.77057370,.00015549,97.9556,230.0526,72.4175,287.7205,0,U,43005,999,46241,.16275563E-3,.1098E-4,0
FENGYUN 3D,2017-072A,2026-06-06T13:49:38.013024,14.19736322,.00026557,99.0127,131.8075,78.6423,281.5051,0,U,43010,999,44348,-.9777056E-5,-.67E-6,0
NOAA 20 (JPSS-1),2017-073A,2026-06-06T13:39:51.299136,14.19509764,.00005414,98.7769,97.1265,38.9175,321.2040,0,U,43013,999,44296,.57007094E-4,.76E-6,0
MAKERSAT 0,2017-073D,2026-06-06T09:39:09.053568,15.31705731,.01063318,97.4648,39.8396,312.0020,47.2202,0,U,43016,999,46481,.81303298E-3,.29727E-3,0
RADFXSAT (FOX-1B),2017-073E,2026-06-06T03:51:33.825024,15.12530755,.0151244,97.4715,24.6017,7.4674,352.8759,0,U,43017,999,46372,.59080475E-3,.13577E-3,0
JILIN-1 04,2017-074A,2026-06-06T13:48:57.384288,15.42174571,.00032136,97.4847,266.9084,216.4943,143.6086,0,U,43022,999,47263,.38637645E-3,.16493E-3,0
JILIN-1 05,2017-074B,2026-06-06T14:49:17.299776,15.33710278,.00037478,97.4853,263.6310,261.7779,98.3039,0,U,43023,999,47238,.31673378E-3,.10248E-3,0
JILIN-1 06,2017-074C,2026-06-06T14:06:47.678976,15.33580309,.00052913,97.4780,260.6237,278.1044,81.9598,0,U,43024,999,47221,.20891474E-3,.6703E-4,0
IRIDIUM 116,2017-083C,2026-06-06T12:58:11.066304,14.34219353,.00019446,86.3960,326.4554,95.6088,264.5329,0,U,43072,999,44264,.75552089E-4,.231E-5,0
IRIDIUM 130,2017-083D,2026-06-06T12:12:31.209984,14.34194363,.00013681,86.4010,326.7443,65.2514,294.8824,0,U,43073,999,44258,.7416526E-4,.227E-5,0
LKW-2,2017-084A,2026-06-06T12:55:39.408384,15.26200964,.00003181,97.1195,197.8337,349.8989,10.2244,0,U,43080,999,47006,.38868596E-3,.999E-4,0
SUPERVIEW-1 03,2018-002A,2026-06-06T13:38:02.342688,15.38905055,.00465778,97.3127,242.4250,217.7498,142.0477,0,U,43099,999,46673,.5295369E-3,.21109E-3,0
CARTOSAT-2F,2018-004A,2026-06-06T14:29:48.561792,15.19292440,.00001714,97.4789,217.3417,43.9036,316.2212,0,U,43111,999,46572,.2135578E-3,.4438E-4,0
LKW-3,2018-006A,2026-06-06T14:59:32.371008,15.35039022,.00028716,97.6609,317.7885,10.4026,349.7275,0,U,43146,999,46709,.45934968E-3,.15547E-3,0
